[{"OBJECT_NAME":"NOAA 21 (JPSS-2)","OBJECT_ID":"2022-150A","EPOCH":"2026-03-09T22:24:21.794976","MEAN_MOTION":14.19552367,"ECCENTRICITY":0.00026632,"INCLINATION":98.7554,"RA_OF_ASC_NODE":9.1966,"ARG_OF_PERICENTER":105.7668,"MEAN_ANOMALY":254.3802,"EPHEMERIS_TYPE":0,"CLASSIFICATION_TYPE":"U","NORAD_CAT_ID":54234,"ELEMENT_SET_NO":999,"REV_AT_EPOCH":17246,"BSTAR":8.7164891e-5,"MEAN_MOTION_DOT":1.4e-6,"MEAN_MOTION_DDOT":0},{"OBJECT_NAME":"FENGYUN 1C DEB","OBJECT_ID":"1999-025QR","EPOCH":"2026-03-09T21:25:37.819776","MEAN_MOTION":14.36183569,"ECCENTRICITY":0.02010087,"INCLINATION":98.3653,"RA_OF_ASC_NODE":55.6078,"ARG_OF_PERICENTER":347.4016,"MEAN_ANOMALY":69.2176,"EPHEMERIS_TYPE":0,"CLASSIFICATION_TYPE":"U","NORAD_CAT_ID":30088,"ELEMENT_SET_NO":999,"REV_AT_EPOCH":99923,"BSTAR":0.00068931732,"MEAN_MOTION_DOT":2.482e-5,"MEAN_MOTION_DDOT":0}]
